NORAD_CAT_ID,OBJECT_NAME,OBJECT_TYPE,EPOCH,MEAN_MOTION,ECCENTRICITY,INCLINATION,RA_OF_ASC_NODE,ARG_OF_PERICENTER,MEAN_ANOMALY,BSTAR,MEAN_MOTION_DOT,MEAN_MOTION_DDOT,TLE_LINE0,TLE_LINE1,TLE_LINE2,SEMIMAJOR_AXIS,PERIOD,APOGEE,PERIGEE,DECAYED
52344.0,STARLINK-3851,PAYLOAD,2024-05-02 22:24:12,15.08848219,0.0001076,53.2172,352.7785,89.1955,270.916,3.9389e-05,3.39e-06,0.0,0 STARLINK-3851,1 52344U 22045P   24123.93347953  .00000339  00000-0  39389-4 0  9997,2 52344  53.2172 352.7785 0001076  89.1955 270.9160 15.08848219113767,6917.855,95.437,540.465,538.976,0.0
52344.0,STARLINK-3851,PAYLOAD,2024-05-03 07:56:31,15.0884916,0.0001058,53.2172,350.994,85.7841,274.3272,6.5357e-05,7.53e-06,0.0,0 STARLINK-3851,1 52344U 22045P   24124.33091670  .00000753  00000-0  65357-4 0  9998,2 52344  53.2172 350.9940 0001058  85.7841 274.3272 15.08849160113821,6917.852,95.437,540.449,538.985,0.0
52344.0,STARLINK-3851,PAYLOAD,2024-05-03 20:39:36,15.08837898,0.0001531,53.2185,348.617,102.2354,257.8809,8.2902e-05,1.032e-05,0.0,0 STARLINK-3851,1 52344U 22045P   24124.86084356  .00001032  00000-0  82902-4 0  9995,2 52344  53.2185 348.6170 0001531 102.2354 257.8809 15.08837898113900,6917.887,95.438,540.811,538.693,0.0
52344.0,STARLINK-3851,PAYLOAD,2024-05-03 22:14:59,15.08849493,0.0001161,53.2185,348.32,102.2567,257.8555,-3.0818e-05,-7.78e-06,0.0,0 STARLINK-3851,1 52344U 22045P   24124.92708077 -.00000778  00000-0 -30818-4 0  9992,2 52344  53.2185 348.3200 0001161 102.2567 257.8555 15.08849493113919,6917.851,95.437,540.52,538.913,0.0
52344.0,STARLINK-3851,PAYLOAD,2024-05-03 23:50:22,15.08850382,0.0001112,53.2186,348.0222,100.3533,259.7584,-4.3133e-05,-9.74e-06,0.0,0 STARLINK-3851,1 52344U 22045P   24124.99332028 -.00000974  00000-0 -43133-4 0  9990,2 52344  53.2186 348.0222 0001112 100.3533 259.7584 15.08850382113922,6917.849,95.437,540.483,538.944,0.0
52344.0,STARLINK-3851,PAYLOAD,2024-05-04 07:47:19,15.0883318,0.0001318,53.2178,346.5333,94.327,265.7873,-1.1738e-05,-4.75e-06,0.0,0 STARLINK-3851,1 52344U 22045P   24125.32452991 -.00000475  00000-0 -11738-4 0  9992,2 52344  53.2178 346.5333 0001318  94.3270 265.7873 15.08833180113977,6917.901,95.438,540.678,538.854,0.0
52344.0,STARLINK-3851,PAYLOAD,2024-05-05 13:59:38,15.08837986,0.0001243,53.2181,340.8826,86.9415,273.1719,3.8733e-05,3.29e-06,0.0,0 STARLINK-3851,1 52344U 22045P   24126.58308874  .00000329  00000-0  38733-4 0  9991,2 52344  53.2181 340.8826 0001243  86.9415 273.1719 15.08837986114162,6917.887,95.438,540.611,538.892,0.0
52344.0,STARLINK-3851,PAYLOAD,2024-05-05 20:21:10,15.08845498,0.0001059,53.2167,339.6945,85.9446,274.1667,4.7198e-05,4.64e-06,0.0,0 STARLINK-3851,1 52344U 22045P   24126.84804296  .00000464  00000-0  47198-4 0  9994,2 52344  53.2167 339.6945 0001059  85.9446 274.1667 15.08845498114207,6917.864,95.437,540.461,538.996,0.0
52344.0,STARLINK-3851,PAYLOAD,2024-05-05 21:56:33,15.08847428,0.0001107,53.2172,339.3972,90.0755,270.0364,6.3078e-05,7.16e-06,0.0,0 STARLINK-3851,1 52344U 22045P   24126.91428117  .00000716  00000-0  63078-4 0  9991,2 52344  53.2172 339.3972 0001107  90.0755 270.0364 15.08847428114219,6917.858,95.437,540.488,538.957,0.0
52344.0,STARLINK-3851,PAYLOAD,2024-05-06 07:28:52,15.08845428,8.07e-05,53.2153,337.6117,95.4338,264.6746,2.9298e-05,1.79e-06,0.0,0 STARLINK-3851,1 52344U 22045P   24127.31172171  .00000179  00000-0  29298-4 0  9991,2 52344  53.2153 337.6117 0000807  95.4338 264.6746 15.08845428114279,6917.864,95.437,540.287,539.171,0.0
52344.0,STARLINK-3851,PAYLOAD,2024-05-06 20:11:58,15.08842529,0.000102,53.2172,335.2331,86.9801,273.1307,7.7095e-05,9.39e-06,0.0,0 STARLINK-3851,1 52344U 22045P   24127.84164430  .00000939  00000-0  77095-4 0  9990,2 52344  53.2172 335.2331 0001020  86.9801 273.1307 15.08842529114356,6917.873,95.437,540.443,539.032,0.0
52344.0,STARLINK-3851,PAYLOAD,2024-05-07 13:41:13,15.08837574,0.0001316,53.2169,331.9628,88.2308,271.8834,-2.5997e-05,-7.02e-06,0.0,0 STARLINK-3851,1 52344U 22045P   24128.57029188 -.00000702  00000-0 -25997-4 0  9995,2 52344  53.2169 331.9628 0001316  88.2308 271.8834 15.08837574114465,6917.888,95.438,540.663,538.842,0.0
52344.0,STARLINK-3851,PAYLOAD,2024-05-07 20:02:45,15.08839695,0.0001095,53.2178,330.7722,99.5891,260.5225,-5.9351e-05,-1.232e-05,0.0,0 STARLINK-3851,1 52344U 22045P   24128.83525113 -.00001232  00000-0 -59351-4 0  9993,2 52344  53.2178 330.7722 0001095  99.5891 260.5225 15.08839695114503,6917.881,95.438,540.504,538.989,0.0
52344.0,STARLINK-3851,PAYLOAD,2024-05-08 19:53:32,15.08845063,0.000108,53.218,326.313,97.3324,262.7791,-3.1075e-06,-3.37e-06,0.0,0 STARLINK-3851,1 52344U 22045P   24129.82884826 -.00000337  00000-0 -31075-5 0  9991,2 52344  53.2180 326.3130 0001080  97.3324 262.7791 15.08845063114655,6917.865,95.437,540.477,538.983,0.0
52344.0,STARLINK-3851,PAYLOAD,2024-05-09 19:44:19,15.08843618,9.6e-05,53.2178,321.852,85.5677,274.5425,0.00016116,2.278e-05,0.0,0 STARLINK-3851,1 52344U 22045P   24130.82244776  .00002278  00000-0  16116-3 0  9998,2 52344  53.2178 321.8520 0000960  85.5677 274.5425 15.08843618114807,6917.869,95.437,540.398,539.07,0.0
52344.0,STARLINK-3851,PAYLOAD,2024-05-10 05:16:38,15.08844134,0.0001071,53.2178,320.0683,94.9049,265.2065,0.00013842,1.916e-05,0.0,0 STARLINK-3851,1 52344U 22045P   24131.21988791  .00001916  00000-0  13842-3 0  9995,2 52344  53.2178 320.0683 0001071  94.9049 265.2065 15.08844134114866,6917.868,95.437,540.474,538.992,0.0
52344.0,STARLINK-3851,PAYLOAD,2024-05-10 13:13:34,15.08841874,0.0001386,53.2193,318.5859,97.4027,262.7123,3.9309e-05,3.38e-06,0.0,0 STARLINK-3851,1 52344U 22045P   24131.55109397  .00000338  00000-0  39309-4 0  9993,2 52344  53.2193 318.5859 0001386  97.4027 262.7123 15.08841874114914,6917.875,95.437,540.698,538.781,0.0
52344.0,STARLINK-3851,PAYLOAD,2024-05-10 19:35:06,15.08843365,0.0001188,53.2188,317.3952,101.7032,258.4094,5.1476e-05,5.32e-06,0.0,0 STARLINK-3851,1 52344U 22045P   24131.81605239  .00000532  00000-0  51476-4 0  9993,2 52344  53.2188 317.3952 0001188 101.7032 258.4094 15.08843365114954,6917.87,95.437,540.557,538.913,0.0
52344.0,STARLINK-3851,PAYLOAD,2024-05-11 21:01:16,15.0880777,8.78e-05,53.2174,312.6287,83.5277,276.5815,-0.0008757,-0.00014185,0.0,0 STARLINK-3851,1 52344U 22045P   24132.87588671 -.00014185  00000-0 -87570-3 0  9994,2 52344  53.2174 312.6287 0000878  83.5277 276.5815 15.08807770115112,6917.979,95.44,540.451,539.237,0.0
52344.0,STARLINK-3851,PAYLOAD,2024-05-12 04:58:14,15.08795393,0.0001123,53.2164,311.1453,89.1339,270.9782,-0.00074823,-0.00012161,0.0,0 STARLINK-3851,1 52344U 22045P   24133.20710801 -.00012161  00000-0 -74823-3 0  9993,2 52344  53.2164 311.1453 0001123  89.1339 270.9782 15.08795393115168,6918.017,95.44,540.659,539.105,0.0
52344.0,STARLINK-3851,PAYLOAD,2024-05-12 11:19:47,15.08785958,0.0001106,53.2161,309.955,77.822,282.2896,-0.00054645,-8.961e-05,0.0,0 STARLINK-3851,1 52344U 22045P   24133.47208042 -.00008961  00000-0 -54645-3 0  9994,2 52344  53.2161 309.9550 0001106  77.8220 282.2896 15.08785958115205,6918.046,95.441,540.676,539.145,0.0
52344.0,STARLINK-3851,PAYLOAD,2024-05-12 19:16:42,15.08827559,0.0001077,53.2168,308.4705,85.2685,274.843,3.4234e-05,2.57e-06,0.0,0 STARLINK-3851,1 52344U 22045P   24133.80327372  .00000257  00000-0  34234-4 0  9990,2 52344  53.2168 308.4705 0001077  85.2685 274.8430 15.08827559115253,6917.918,95.438,540.528,539.038,0.0
52344.0,STARLINK-3851,PAYLOAD,2024-05-13 04:49:01,15.08833896,9.83e-05,53.2165,306.6843,82.6429,277.4675,9.2045e-05,1.177e-05,0.0,0 STARLINK-3851,1 52344U 22045P   24134.20071329  .00001177  00000-0  92045-4 0  9999,2 52344  53.2165 306.6843 0000983  82.6429 277.4675 15.08833896115313,6917.899,95.438,540.444,539.084,0.0
52344.0,STARLINK-3851,PAYLOAD,2024-05-13 17:32:07,15.08824495,6.28e-05,53.2144,304.306,104.2114,255.8948,0.00068282,0.00010591,0.0,0 STARLINK-3851,1 52344U 22045P   24134.73063900  .00010591  00000-0  68282-3 0  9998,2 52344  53.2144 304.3060 0000628 104.2114 255.8948 15.08824495115390,6917.928,95.439,540.227,539.358,0.0
52344.0,STARLINK-3851,PAYLOAD,2024-05-14 04:39:48,15.08842598,9.67e-05,53.2163,302.2258,84.4154,275.6949,0.00070922,0.00011018,0.0,0 STARLINK-3851,1 52344U 22045P   24135.19431399  .00011018  00000-0  70922-3 0  9999,2 52344  53.2163 302.2258 0000967  84.4154 275.6949 15.08842598115469,6917.872,95.437,540.406,539.068,0.0
52344.0,STARLINK-3851,PAYLOAD,2024-05-14 11:01:20,15.08837102,0.0001063,53.2171,301.0364,83.483,276.6283,0.00057365,8.853e-05,0.0,0 STARLINK-3851,1 52344U 22045P   24135.45926747  .00008853  00000-0  57365-3 0  9993,2 52344  53.2171 301.0364 0001063  83.4830 276.6283 15.08837102115503,6917.889,95.438,540.49,539.019,0.0
52344.0,STARLINK-3851,PAYLOAD,2024-05-14 17:22:52,15.08860972,0.0001093,53.2152,299.8471,81.6923,278.4193,0.00071898,0.0001118,0.0,0 STARLINK-3851,1 52344U 22045P   24135.72422389  .00011180  00000-0  71898-3 0  9990,2 52344  53.2152 299.8471 0001093  81.6923 278.4193 15.08860972115546,6917.816,95.436,540.437,538.925,0.0
52344.0,STARLINK-3851,PAYLOAD,2024-05-15 04:30:35,15.08842939,0.0002926,53.2162,297.7619,96.4383,263.6942,-6.1793e-05,-1.272e-05,0.0,0 STARLINK-3851,1 52344U 22045P   24136.18790988 -.00001272  00000-0 -61793-4 0  9991,2 52344  53.2162 297.7619 0002926  96.4383 263.6942 15.08842939115617,6917.871,95.437,541.761,537.712,0.0
52344.0,STARLINK-3851,PAYLOAD,2024-05-15 10:52:06,15.08855716,0.0001971,53.2166,296.5726,97.5245,262.5972,4.6132e-05,4.46e-06,0.0,0 STARLINK-3851,1 52344U 22045P   24136.45285836  .00000446  00000-0  46132-4 0  9992,2 52344  53.2166 296.5726 0001971  97.5245 262.5972 15.08855716115657,6917.832,95.437,541.061,538.334,0.0
52344.0,STARLINK-3851,PAYLOAD,2024-05-15 14:02:53,15.08851387,0.0001736,53.2142,295.9751,123.3051,236.8108,-3.1907e-05,-7.96e-06,0.0,0 STARLINK-3851,1 52344U 22045P   24136.58533714 -.00000796  00000-0 -31907-4 0  9991,2 52344  53.2142 295.9751 0001736 123.3051 236.8108 15.08851387115671,6917.846,95.437,540.912,538.51,0.0
